CCSDS_OMM_VERS = 2.0
CREATION_DATE  = 
ORIGINATOR     = 

OBJECT_NAME    = COSMOS 1933
OBJECT_ID      = 1988-020A
CENTER_NAME    = EARTH
REF_FRAME      = TEME
TIME_SYSTEM    = UTC
MEAN_ELEMENT_THEORY = SGP/SGP4

EPOCH          = 2026-01-16T05:51:54.368064
MEAN_MOTION    = 15.17458876
ECCENTRICITY   = .00055317
INCLINATION    = 82.5154
RA_OF_ASC_NODE = 302.7816
ARG_OF_PERICENTER = 40.2906
MEAN_ANOMALY   = 319.8737

EPHEMERIS_TYPE = 0
CLASSIFICATION_TYPE = U
NORAD_CAT_ID   = 18958
ELEMENT_SET_NO = 999
REV_AT_EPOCH   = 4227
BSTAR          = .14203605E-3
MEAN_MOTION_DOT = .2874E-4
MEAN_MOTION_DDOT = 0

CCSDS_OMM_VERS = 2.0
CREATION_DATE  = 
ORIGINATOR     = 

OBJECT_NAME    = SL-3 R/B
OBJECT_ID      = 1988-032B
CENTER_NAME    = EARTH
REF_FRAME      = TEME
TIME_SYSTEM    = UTC
MEAN_ELEMENT_THEORY = SGP/SGP4

EPOCH          = 2026-01-16T13:53:27.632256
MEAN_MOTION    = 15.19150813
ECCENTRICITY   = .00281578
INCLINATION    = 97.5110
RA_OF_ASC_NODE = 0.0746
ARG_OF_PERICENTER = 57.8775
MEAN_ANOMALY   = 302.5186

EPHEMERIS_TYPE = 0
CLASSIFICATION_TYPE = U
NORAD_CAT_ID   = 19046
ELEMENT_SET_NO = 999
REV_AT_EPOCH   = 4419
BSTAR          = .19439244E-3
MEAN_MOTION_DOT = .4057E-4
MEAN_MOTION_DDOT = 0

CCSDS_OMM_VERS = 2.0
CREATION_DATE  = 
ORIGINATOR     = 

OBJECT_NAME    = SL-16 R/B
OBJECT_ID      = 1988-039B
CENTER_NAME    = EARTH
REF_FRAME      = TEME
TIME_SYSTEM    = UTC
MEAN_ELEMENT_THEORY = SGP/SGP4

EPOCH          = 2026-01-16T13:20:33.540000
MEAN_MOTION    = 14.19606043
ECCENTRICITY   = .00198615
INCLINATION    = 71.0136
RA_OF_ASC_NODE = 178.7829
ARG_OF_PERICENTER = 56.6085
MEAN_ANOMALY   = 303.6937

EPHEMERIS_TYPE = 0
CLASSIFICATION_TYPE = U
NORAD_CAT_ID   = 19120
ELEMENT_SET_NO = 999
REV_AT_EPOCH   = 95098
BSTAR          = .12392466E-3
MEAN_MOTION_DOT = .214E-5
MEAN_MOTION_DDOT = 0

CCSDS_OMM_VERS = 2.0
CREATION_DATE  = 
ORIGINATOR     = 

OBJECT_NAME    = COSMOS 1953
OBJECT_ID      = 1988-050A
CENTER_NAME    = EARTH
REF_FRAME      = TEME
TIME_SYSTEM    = UTC
MEAN_ELEMENT_THEORY = SGP/SGP4

EPOCH          = 2026-01-16T13:30:02.283552
MEAN_MOTION    = 15.27391449
ECCENTRICITY   = .00107252
INCLINATION    = 82.5062
RA_OF_ASC_NODE = 210.6263
ARG_OF_PERICENTER = 312.8990
MEAN_ANOMALY   = 47.1348

EPHEMERIS_TYPE = 0
CLASSIFICATION_TYPE = U
NORAD_CAT_ID   = 19210
ELEMENT_SET_NO = 999
REV_AT_EPOCH   = 2982
BSTAR          = .17298924E-3
MEAN_MOTION_DOT = .4677E-4
MEAN_MOTION_DDOT = 0

CCSDS_OMM_VERS = 2.0
CREATION_DATE  = 
ORIGINATOR     = 

OBJECT_NAME    = SL-8 R/B
OBJECT_ID      = 1988-053B
CENTER_NAME    = EARTH
REF_FRAME      = TEME
TIME_SYSTEM    = UTC
MEAN_ELEMENT_THEORY = SGP/SGP4

EPOCH          = 2026-01-16T13:56:20.155776
MEAN_MOTION    = 14.38880364
ECCENTRICITY   = .001942
INCLINATION    = 74.0453
RA_OF_ASC_NODE = 208.5060
ARG_OF_PERICENTER = 39.8697
MEAN_ANOMALY   = 16.0201

EPHEMERIS_TYPE = 0
CLASSIFICATION_TYPE = U
NORAD_CAT_ID   = 19257
ELEMENT_SET_NO = 999
REV_AT_EPOCH   = 96910
BSTAR          = .33698618E-4
MEAN_MOTION_DOT = .78E-6
MEAN_MOTION_DDOT = 0

CCSDS_OMM_VERS = 2.0
CREATION_DATE  = 
ORIGINATOR     = 

OBJECT_NAME    = COSMOS 1975
OBJECT_ID      = 1988-093A
CENTER_NAME    = EARTH
REF_FRAME      = TEME
TIME_SYSTEM    = UTC
MEAN_ELEMENT_THEORY = SGP/SGP4

EPOCH          = 2026-01-16T12:25:03.171648
MEAN_MOTION    = 15.27025393
ECCENTRICITY   = .00115411
INCLINATION    = 82.5201
RA_OF_ASC_NODE = 169.9980
ARG_OF_PERICENTER = 0.1362
MEAN_ANOMALY   = 359.9877

EPHEMERIS_TYPE = 0
CLASSIFICATION_TYPE = U
NORAD_CAT_ID   = 19573
ELEMENT_SET_NO = 999
REV_AT_EPOCH   = 1144
BSTAR          = .20105202E-3
MEAN_MOTION_DOT = .5372E-4
MEAN_MOTION_DDOT = 0

CCSDS_OMM_VERS = 2.0
CREATION_DATE  = 
ORIGINATOR     = 

OBJECT_NAME    = SL-14 R/B
OBJECT_ID      = 1988-093B
CENTER_NAME    = EARTH
REF_FRAME      = TEME
TIME_SYSTEM    = UTC
MEAN_ELEMENT_THEORY = SGP/SGP4

EPOCH          = 2026-01-16T14:36:50.832288
MEAN_MOTION    = 14.85592579
ECCENTRICITY   = .00200397
INCLINATION    = 82.5308
RA_OF_ASC_NODE = 90.9451
ARG_OF_PERICENTER = 206.6800
MEAN_ANOMALY   = 272.3548

EPHEMERIS_TYPE = 0
CLASSIFICATION_TYPE = U
NORAD_CAT_ID   = 19574
ELEMENT_SET_NO = 999
REV_AT_EPOCH   = 99330
BSTAR          = .35030208E-4
MEAN_MOTION_DOT = .328E-5
MEAN_MOTION_DDOT = 0

CCSDS_OMM_VERS = 2.0
CREATION_DATE  = 
ORIGINATOR     = 

OBJECT_NAME    = SL-16 R/B
OBJECT_ID      = 1988-102B
CENTER_NAME    = EARTH
REF_FRAME      = TEME
TIME_SYSTEM    = UTC
MEAN_ELEMENT_THEORY = SGP/SGP4

EPOCH          = 2026-01-16T10:09:11.378304
MEAN_MOTION    = 14.16144657
ECCENTRICITY   = .00119876
INCLINATION    = 70.9988
RA_OF_ASC_NODE = 261.4685
ARG_OF_PERICENTER = 90.7244
MEAN_ANOMALY   = 269.5253

EPHEMERIS_TYPE = 0
CLASSIFICATION_TYPE = U
NORAD_CAT_ID   = 19650
ELEMENT_SET_NO = 999
REV_AT_EPOCH   = 91949
BSTAR          = .17201215E-3
MEAN_MOTION_DOT = .293E-5
MEAN_MOTION_DDOT = 0

CCSDS_OMM_VERS = 2.0
CREATION_DATE  = 
ORIGINATOR     = 

OBJECT_NAME    = INTERCOSMOS 24
OBJECT_ID      = 1989-080A
CENTER_NAME    = EARTH
REF_FRAME      = TEME
TIME_SYSTEM    = UTC
MEAN_ELEMENT_THEORY = SGP/SGP4

EPOCH          = 2026-01-16T14:50:06.510624
MEAN_MOTION    = 12.59487774
ECCENTRICITY   = .11889609
INCLINATION    = 82.6079
RA_OF_ASC_NODE = 138.2809
ARG_OF_PERICENTER = 53.6548
MEAN_ANOMALY   = 316.8475

EPHEMERIS_TYPE = 0
CLASSIFICATION_TYPE = U
NORAD_CAT_ID   = 20261
ELEMENT_SET_NO = 999
REV_AT_EPOCH   = 66024
BSTAR          = .72518996E-4
MEAN_MOTION_DOT = .275E-5
MEAN_MOTION_DDOT = 0

CCSDS_OMM_VERS = 2.0
CREATION_DATE  = 
ORIGINATOR     = 

OBJECT_NAME    = SL-14 R/B
OBJECT_ID      = 1989-080C
CENTER_NAME    = EARTH
REF_FRAME      = TEME
TIME_SYSTEM    = UTC
MEAN_ELEMENT_THEORY = SGP/SGP4

EPOCH          = 2026-01-16T13:06:56.421504
MEAN_MOTION    = 12.50439079
ECCENTRICITY   = .12297144
INCLINATION    = 82.5914
RA_OF_ASC_NODE = 206.6688
ARG_OF_PERICENTER = 304.0250
MEAN_ANOMALY   = 44.9896

EPHEMERIS_TYPE = 0
CLASSIFICATION_TYPE = U
NORAD_CAT_ID   = 20262
ELEMENT_SET_NO = 999
REV_AT_EPOCH   = 65363
BSTAR          = .56477724E-4
MEAN_MOTION_DOT = .188E-5
MEAN_MOTION_DDOT = 0

CCSDS_OMM_VERS = 2.0
CREATION_DATE  = 
ORIGINATOR     = 

OBJECT_NAME    = DELTA 1 R/B
OBJECT_ID      = 1989-089B
CENTER_NAME    = EARTH
REF_FRAME      = TEME
TIME_SYSTEM    = UTC
MEAN_ELEMENT_THEORY = SGP/SGP4

EPOCH          = 2026-01-16T13:01:56.101152
MEAN_MOTION    = 14.50606852
ECCENTRICITY   = .00676434
INCLINATION    = 97.0734
RA_OF_ASC_NODE = 232.2625
ARG_OF_PERICENTER = 287.9425
MEAN_ANOMALY   = 71.4407

EPHEMERIS_TYPE = 0
CLASSIFICATION_TYPE = U
NORAD_CAT_ID   = 20323
ELEMENT_SET_NO = 999
REV_AT_EPOCH   = 88817
BSTAR          = .79023985E-4
MEAN_MOTION_DOT = .283E-5
MEAN_MOTION_DDOT = 0

CCSDS_OMM_VERS = 2.0
CREATION_DATE  = 
ORIGINATOR     = 

OBJECT_NAME    = ARIANE 40 R/B
OBJECT_ID      = 1990-005H
CENTER_NAME    = EARTH
REF_FRAME      = TEME
TIME_SYSTEM    = UTC
MEAN_ELEMENT_THEORY = SGP/SGP4

EPOCH          = 2026-01-16T09:59:54.804192
MEAN_MOTION    = 14.39826698
ECCENTRICITY   = .00101046
INCLINATION    = 98.3190
RA_OF_ASC_NODE = 78.6065
ARG_OF_PERICENTER = 8.9905
MEAN_ANOMALY   = 351.1463

EPHEMERIS_TYPE = 0
CLASSIFICATION_TYPE = U
NORAD_CAT_ID   = 20443
ELEMENT_SET_NO = 999
REV_AT_EPOCH   = 88528
BSTAR          = .73108405E-4
MEAN_MOTION_DOT = .187E-5
MEAN_MOTION_DDOT = 0

