COSMOS 1933             
1 18958U 88020A   26016.24437926  .00002874  00000+0  14204-3 0  9995
2 18958  82.5154 302.7816 0005531  40.2906 319.8737 15.17458876 42275
SL-3 R/B                
1 19046U 88032B   26016.57879204  .00004057  00000+0  19439-3 0  9992
2 19046  97.5110   0.0746 0028157  57.8775 302.5186 15.19150813 44191
SL-16 R/B               
1 19120U 88039B   26016.55594375  .00000214  00000+0  12392-3 0  9995
2 19120  71.0136 178.7829 0019861  56.6085 303.6937 14.19606043950986
COSMOS 1953             
1 19210U 88050A   26016.56252643  .00004677  00000+0  17299-3 0  9996
2 19210  82.5062 210.6263 0010725 312.8990  47.1348 15.27391449 29828
SL-8 R/B                
1 19257U 88053B   26016.58078884  .00000078  00000+0  33699-4 0  9999
2 19257  74.0453 208.5060 0019420  39.8697  16.0201 14.38880364969108
COSMOS 1975             
1 19573U 88093A   26016.51739782  .00005372  00000+0  20105-3 0  9997
2 19573  82.5201 169.9980 0011541   0.1362 359.9877 15.27025393 11446
SL-14 R/B               
1 19574U 88093B   26016.60892167  .00000328  00000+0  35030-4 0  9995
2 19574  82.5308  90.9451 0020039 206.6800 272.3548 14.85592579993308
SL-16 R/B               
1 19650U 88102B   26016.42304836  .00000293  00000+0  17201-3 0  9992
2 19650  70.9988 261.4685 0011987  90.7244 269.5253 14.16144657919491
INTERCOSMOS 24          
1 20261U 89080A   26016.61813091  .00000275  00000+0  72519-4 0  9991
2 20261  82.6079 138.2809 1188960  53.6548 316.8475 12.59487774660246
SL-14 R/B               
1 20262U 89080C   26016.54648636  .00000188  00000+0  56478-4 0  9994
2 20262  82.5914 206.6688 1229714 304.0250  44.9896 12.50439079653632
DELTA 1 R/B             
1 20323U 89089B   26016.54301043  .00000283  00000+0  79024-4 0  9997
2 20323  97.0734 232.2625 0067643 287.9425  71.4407 14.50606852888179
ARIANE 40 R/B           
1 20443U 90005H   26016.41660653  .00000187  00000+0  73108-4 0  9991
2 20443  98.3190  78.6065 0010104   8.9905 351.1463 14.39826698885284
